QUETZSAT 1              
1 37826U 11054A   16240.29758817 -.00000272  00000-0  00000+0 0  9998
2 37826   0.0616 292.5976 0002390 226.8765 206.6079  1.00273932 18197
INTELSAT 18 (IS-18)     
1 37834U 11056A   16239.54617060  .00000023  00000-0  00000+0 0  9992
2 37834   0.0196 128.4242 0001734  40.8872 182.5128  1.00270201 17930
EUTELSAT 16A            
1 37836U 11057A   16240.12896765  .00000074  00000-0  00000+0 0  9998
2 37836   0.0657   1.4398 0004094 156.6501 240.1127  1.00273044 17885
VIASAT-1                
1 37843U 11059A   16239.26859609 -.00000052  00000-0  00000+0 0  9994
2 37843   0.0183 137.6979 0002334  23.4427 155.3811  1.00272305 18356
ASIASAT 7               
1 37933U 11069A   16240.50271845 -.00000364  00000-0  00000+0 0  9990
2 37933   0.0197 137.2736 0000646 352.2026 133.1677  1.00268261 17551
LUCH 5A                 
1 37951U 11074B   16239.60830346 -.00000074  00000-0  00000-0 0  9991
2 37951   1.6648 208.2304 0003261 299.1950 213.8950  1.00274366 17272
NIGCOMSAT 1R            
1 38014U 11077A   16239.89946593  .00000115  00000-0  00000+0 0  9992
2 38014   0.0149 273.9945 0003544 347.6946  80.1635  1.00272727 17117
FENGYUN 2F              
1 38049U 12002A   16239.88024574 -.00000387  00000-0  00000+0 0  9996
2 38049   1.1199  76.5427 0002530 203.6049 124.3203  1.00277575 16974
SES-4                   
1 38087U 12007A   16240.33440418 -.00000200  00000-0  00000+0 0  9998
2 38087   0.0082  59.5393 0002364 102.9485 271.8482  1.00269403 16583
BEIDOU G5               
1 38091U 12008A   16240.17349038  .00000027  00000-0  00000+0 0  9998
2 38091   1.7396  50.0803 0003023 173.7878 233.0721  1.00272098 16570
INTELSAT 22 (IS-22)     
1 38098U 12011A   16238.87041499 -.00000086  00000-0  00000-0 0  9990
2 38098   0.0135  66.5295 0002091 106.3355 187.1380  1.00270598 15924
APSTAR 7                
1 38107U 12013A   16239.88409707 -.00000132  00000-0  00000-0 0  9997
2 38107   0.0328  86.4476 0002646  64.0841 219.8025  1.00272003 16267
YAHSAT 1B               
1 38245U 12016A   16239.18088193  .00000098  00000-0  00000+0 0  9997
2 38245   0.0148 216.7194 0000306 303.4664 287.3882  1.00273263 16001
JCSAT-13                
1 38331U 12023A   16238.72670593 -.00000384  00000-0  00000-0 0  9991
2 38331   0.0199 110.9749 0001435  55.2623 193.7668  1.00268277 15601
VINASAT-2               
1 38332U 12023B   16239.79539473 -.00000359  00000-0  00000+0 0  9992
2 38332   0.0467 290.5324 0001835 257.1421 205.9541  1.00269460 15709
NIMIQ 6                 
1 38342U 12026A   16239.32253819 -.00000202  00000-0  00000+0 0  9999
2 38342   0.0608 283.9555 0001911 240.2393 195.8037  1.00272104 15688
CHINASAT 2A (ZX 2A)     
1 38352U 12028A   16239.84570113 -.00000322  00000-0  00000+0 0  9991
2 38352   0.0645 279.5348 0001957 348.0818 110.5895  1.00270315 15734
INTELSAT 19 (IS-19)     
1 38356U 12030A   16239.60756325 -.00000086  00000-0  00000+0 0  9990
2 38356   0.0074 269.6969 0002870 250.0243 200.2822  1.00271972 15605
ECHOSTAR 17             
1 38551U 12035A   16239.36688558 -.00000104  00000-0  00000+0 0  9998
2 38551   0.0108 116.8716 0001860  37.9667 205.1633  1.00270825 15210
METEOSAT-10 (MSG-3)     
1 38552U 12035B   16240.06707543 -.00000033  00000-0  00000+0 0  9995
2 38552   0.5206  17.4001 0002335 199.8227 142.7531  1.00275134 15318
SES-5                   
1 38652U 12036A   16239.80493269  .00000004  00000-0  00000+0 0  9991
2 38652   0.0527 276.3955 0002521 256.6333  97.1886  1.00272155 15159
TIANLIAN 1-03           
1 38730U 12040A   16240.03827705  .00000042  00000-0  00000+0 0  9998
2 38730   0.1413 270.4848 0002856 249.1824 200.3352  1.00274290 15080
INTELSAT 20 (IS-20)     
1 38740U 12043A   16238.88030091 -.00000052  00000-0  00000+0 0  9998
2 38740   0.0278 132.0791 0000337   2.7763 225.1473  1.00270263 14912
HYLAS 2                 
1 38741U 12043B   16238.98421257  .00000126  00000-0  00000+0 0  9999
2 38741   0.0372 290.8572 0001923 235.4917 193.6495  1.00273847 14932
INTELSAT 21 (IS-21)     
1 38749U 12045A   16240.22809221 -.00000315  00000-0  00000+0 0  9991
2 38749   0.0052 140.7870 0002689  13.3484 205.8690  1.00272605 14733
ASTRA 2F                
1 38778U 12051A   16238.99207131  .00000122  00000-0  00000+0 0  9998
2 38778   0.0937 251.4785 0003825 308.9113 159.5880  1.00271506 14372
GSAT-10                 
1 38779U 12051B   16239.83755388 -.00000195  00000-0  00000+0 0  9996
2 38779   0.0477 272.9649 0001124 199.3167 247.7218  1.00273339 14382
INTELSAT 23 (IS-23)     
1 38867U 12057A   16239.21697123 -.00000313  00000-0  00000+0 0  9996
2 38867   0.0385 259.6378 0001852 254.5496 205.8146  1.00272546 14199
BEIDOU G6               
1 38953U 12059A   16240.21138395 -.00000206  00000-0  10000-3 0  9993
2 38953   1.0544  78.8914 0005652 134.2508 282.8870  1.00272409 14142
LUCH 5B                 
1 38977U 12061A   16239.31456022 -.00000159  00000-0  00000+0 0  9993
2 38977   2.9517  76.6306 0003287  66.4396 288.8528  1.00270420 14251
YAMAL 300K              
1 38978U 12061B   16239.55368970  .00000042  00000-0  00000+0 0  9994
2 38978   0.0109 175.9227 0001260  79.1396 102.4638  1.00268832 13956
STAR ONE C3             
1 38991U 12062A   16240.10079310 -.00000279  00000-0  00000+0 0  9993
2 38991   0.0109 116.5630 0002084  79.4409 101.0384  1.00270063 13944
EUTELSAT 21B            
1 38992U 12062B   16240.00762996  .00000100  00000-0  00000+0 0  9994
2 38992   0.0666   6.8497 0002102 154.9026 198.2466  1.00273070 13962
ECHOSTAR 16             
1 39008U 12065A   16239.24054277 -.00000310  00000-0  00000+0 0  9990
2 39008   0.0153 127.9517 0001928  27.4792 204.5711  1.00272229 13890
CHINASAT 12 (ZX 12)     
1 39017U 12067A   16240.24963830 -.00000237  00000-0  00000+0 0  9996
2 39017   0.0115 105.6967 0002912  52.3221 355.2560  1.00271698 13804
EUTELSAT 70B            
1 39020U 12069A   16239.87210767 -.00000074  00000-0  00000+0 0  9992
2 39020   0.0628  15.2184 0002450 132.4825 212.3058  1.00273781 13700
YAMAL 402               
1 39022U 12070A   16238.94191339  .00000058  00000-0  10000-3 0  9992
2 39022   0.0439 273.2122 0002669 216.4198 238.9634  1.00273618 13688
SKYNET 5D               
1 39034U 12075A   16239.86497380  .00000070  00000-0  00000+0 0  9996
2 39034   0.0711   0.2742 0003564 168.8541 170.5127  1.00271668 13600
MEXSAT 3                
1 39035U 12075B   16238.39095755 -.00000052  00000-0  00000+0 0  9995
2 39035   0.0555 253.4566 0002386 266.8283 199.7187  1.00271740 13550
TDRS 11                 
1 39070U 13004A   16239.45814255  .00000071  00000-0  00000+0 0  9999
2 39070   5.7629 329.0076 0009768 277.1560  82.8238  1.00277778 13076
AMAZONAS 3              
1 39078U 13006A   16239.23904633 -.00000311  00000-0  00000+0 0  9993
2 39078   0.0493 241.5831 0004192 311.7816 166.6169  1.00271379 13056
AZERSPACE 1             
1 39079U 13006B   16239.12196480  .00000105  00000-0  00000+0 0  9995
2 39079   0.0145 225.0070 0001552 333.9463 225.7231  1.00271559 13017
EUTELSAT 117 WEST A     
1 39122U 13012A   16239.39374076 -.00000041  00000-0  00000-0 0  9990
2 39122   0.0601 270.4037 0002377 244.9292 204.6708  1.00271475 12535
ANIK G1                 
1 39127U 13014A   16239.36737253 -.00000102  00000-0  00000-0 0  9992
2 39127   0.0368 282.9282 0001846 285.6773 151.3768  1.00271571  9410
CHINASAT 11 (ZX 11)     
1 39157U 13020A   16239.98554689 -.00000321  00000-0  00000-0 0  9993
2 39157   0.0162 229.8907 0000647  37.6372 160.9020  1.00268619 12248
EUTELSAT 7B             
1 39163U 13022A   16239.05081020  .00000020  00000-0  00000-0 0  9999
2 39163   0.0480  39.8581 0001367 328.0020 352.1351  1.00272624 12087
SES-6                   
1 39172U 13026A   16240.08662052 -.00000292  00000-0  00000+0 0  9999
2 39172   0.0581 298.7427 0001818 212.7412 174.9363  1.00270702 11828
IRNSS-1A                
1 39199U 13034A   16237.25640821  .00000074  00000-0  00000-0 0  9990
2 39199  28.3518 120.2374 0018018 182.7684 177.2945  1.00275597 11433
ALPHASAT                
1 39215U 13038A   16239.09055541  .00000111  00000-0  00000-0 0  9998
2 39215   1.4184  31.4601 0002073 123.7526 237.0155  1.00274476  8139
INSAT-3D                
1 39216U 13038B   16239.84006365 -.00000186  00000-0  00000-0 0  9995
2 39216   0.0737 276.7171 0001216 321.1365 122.1261  1.00272901 11203
EUTELSAT 25B            
1 39233U 13044A   16238.99956462  .00000115  00000-0  00000+0 0  9998
2 39233   0.0521 346.3887 0001521 192.7757 180.8290  1.00270219 10984
GSAT-7                  
1 39234U 13044B   16238.86493615 -.00000104  00000-0  00000-0 0  9991
2 39234   0.0645 270.5554 0009612   3.5391  85.7891  1.00271661  9455
AMOS-4                  
1 39237U 13045A   16238.89011351 -.00000020  00000-0  00000+0 0  9997
2 39237   0.0516 269.0771 0001000 273.4841 177.4316  1.00272294 10973
ASTRA 2E                
1 39285U 13056A   16238.99120806  .00000122  00000-0  00000+0 0  9991
2 39285   0.0704  49.1250 0002438  96.6753 214.2087  1.00269047 10671
SIRIUS FM-6             
1 39360U 13058A   16237.39738082 -.00000041  00000-0  00000+0 0  9992
2 39360   0.0175  92.0676 0000247 284.4752 343.4541  1.00273965 10414
RADUGA-1M 3             
1 39375U 13062A   16239.85672844 -.00000068  00000-0  00000+0 0  9998
2 39375   0.0175 186.2634 0002959 325.2386 202.4369  1.00272749 10218
SES-8                   
1 39460U 13071A   16239.80430729 -.00000299  00000-0  00000+0 0  9998
2 39460   0.0502 282.2210 0002087 224.3992 213.3845  1.00273446  9963
INMARSAT 5-F1           
1 39476U 13073A   16239.03591009 -.00000000  00000-0  00000+0 0  9991
2 39476   0.0172 126.3004 0000484 193.2907  90.6671  1.00272127 10017
TKSAT-1 (TUPAC KATARI)  
1 39481U 13075A   16240.20086874 -.00000225  00000-0  00000+0 0  9998
2 39481   0.0155 311.2291 0001647 230.1441 139.6119  1.00271087  9937
